NORAD_CAT_ID,OBJECT_NAME,OBJECT_TYPE,EPOCH,MEAN_MOTION,ECCENTRICITY,INCLINATION,RA_OF_ASC_NODE,ARG_OF_PERICENTER,MEAN_ANOMALY,BSTAR,MEAN_MOTION_DOT,MEAN_MOTION_DDOT,TLE_LINE0,TLE_LINE1,TLE_LINE2,SEMIMAJOR_AXIS,PERIOD,APOGEE,PERIGEE,DECAYED
55271.0,STARLINK-5306,PAYLOAD,2024-03-17 08:23:09,14.983338,0.0002786,70.0,65.8424,265.58,94.5041,3.6163e-05,3.39e-06,0.0,0 STARLINK-5306,1 55271U 23010C   24077.34941233  .00000339  00000-0  36163-4 0  9993,2 55271  70.0000  65.8424 0002786 265.5800  94.5041 14.98333800 64582,6950.181,96.107,573.982,570.11,0.0
55271.0,STARLINK-5306,PAYLOAD,2024-03-17 22:48:22,14.98327741,0.0002758,70.0,64.3276,264.9103,95.1741,5.4089e-05,5.52e-06,0.0,0 STARLINK-5306,1 55271U 23010C   24077.95025524  .00000552  00000-0  54089-4 0  9990,2 55271  70.0000  64.3276 0002758 264.9103  95.1741 14.98327741 64670,6950.2,96.107,573.982,570.148,0.0
55271.0,STARLINK-5306,PAYLOAD,2024-03-18 05:12:54,14.9832667,0.0002774,70.0001,63.6541,264.3798,95.7045,3.6563e-05,3.43e-06,0.0,0 STARLINK-5306,1 55271U 23010C   24078.21729677  .00000343  00000-0  36563-4 0  9995,2 55271  70.0001  63.6541 0002774 264.3798  95.7045 14.98326670 64404,6950.203,96.107,573.996,570.14,0.0
55271.0,STARLINK-5306,PAYLOAD,2024-03-18 08:25:10,14.98327368,0.0002757,70.0002,63.3176,264.0192,96.0653,4.3328e-05,4.24e-06,0.0,0 STARLINK-5306,1 55271U 23010C   24078.35081636  .00000424  00000-0  43328-4 0  9993,2 55271  70.0002  63.3176 0002757 264.0192  96.0653 14.98327368 64732,6950.201,96.107,573.982,570.15,0.0
55271.0,STARLINK-5306,PAYLOAD,2024-03-19 08:27:10,14.98335621,0.0002726,70.0004,60.7928,264.4956,95.5892,5.8541e-05,6.06e-06,0.0,0 STARLINK-5306,1 55271U 23010C   24079.35221055  .00000606  00000-0  58541-4 0  9990,2 55271  70.0004  60.7928 0002726 264.4956  95.5892 14.98335621 64570,6950.176,96.107,573.935,570.146,0.0
55271.0,STARLINK-5306,PAYLOAD,2024-03-20 08:29:11,14.9833316,0.0002743,70.0006,58.2679,265.4955,94.589,8.2606e-05,8.93e-06,0.0,0 STARLINK-5306,1 55271U 23010C   24080.35360993  .00000893  00000-0  82606-4 0  9994,2 55271  70.0006  58.2679 0002743 265.4955  94.5890 14.98333160 64726,6950.183,96.107,573.955,570.142,0.0
55271.0,STARLINK-5306,PAYLOAD,2024-03-20 22:54:24,14.98330971,0.0002619,70.0012,56.7529,272.4255,87.6604,-1.9372e-05,-3.24e-06,0.0,0 STARLINK-5306,1 55271U 23010C   24080.95445489 -.00000324  00000-0 -19372-4 0  9995,2 55271  70.0012  56.7529 0002619 272.4255  87.6604 14.98330971 65121,6950.19,96.107,573.875,570.235,0.0
55271.0,STARLINK-5306,PAYLOAD,2024-03-21 05:18:57,14.98328291,0.0002671,70.0011,56.0798,273.3352,86.7502,-5.1119e-05,-7.03e-06,0.0,0 STARLINK-5306,1 55271U 23010C   24081.22149730 -.00000703  00000-0 -51119-4 0  9992,2 55271  70.0011  56.0798 0002671 273.3352  86.7502 14.98328291 64855,6950.198,96.107,573.92,570.207,0.0
55271.0,STARLINK-5306,PAYLOAD,2024-03-21 08:31:13,14.98328462,0.0002682,70.0011,55.7433,272.8889,87.1963,-4.8882e-05,-6.76e-06,0.0,0 STARLINK-5306,1 55271U 23010C   24081.35501718 -.00000676  00000-0 -48882-4 0  9996,2 55271  70.0011  55.7433 0002682 272.8889  87.1963 14.98328462 65181,6950.198,96.107,573.927,570.199,0.0
55271.0,STARLINK-5306,PAYLOAD,2024-03-21 22:56:25,14.98336014,0.0002922,70.0006,54.2272,276.8309,83.2517,5.7809e-05,5.97e-06,0.0,0 STARLINK-5306,1 55271U 23010C   24081.95584894  .00000597  00000-0  57809-4 0  9997,2 55271  70.0006  54.2272 0002922 276.8309  83.2517 14.98336014 65272,6950.174,96.107,574.07,570.008,0.0
55271.0,STARLINK-5306,PAYLOAD,2024-03-22 05:20:56,14.98349564,0.000255,70.0002,53.5539,270.9677,89.1189,-3.6282e-05,-5.26e-06,0.0,0 STARLINK-5306,1 55271U 23010C   24082.22288134 -.00000526  00000-0 -36282-4 0  9992,2 55271  70.0002  53.5539 0002550 270.9677  89.1189 14.98349564 65001,6950.132,96.106,573.77,570.225,0.0
55271.0,STARLINK-5306,PAYLOAD,2024-03-22 06:57:04,14.98344335,0.0002968,70.0004,53.386,276.5526,83.5295,0.00015808,1.794e-05,0.0,0 STARLINK-5306,1 55271U 23010C   24082.28963991  .00001794  00000-0  15808-3 0  9995,2 55271  70.0004  53.3860 0002968 276.5526  83.5295 14.98344335 65328,6950.149,96.106,574.076,569.951,0.0
55271.0,STARLINK-5306,PAYLOAD,2024-03-23 05:22:59,14.98321404,0.0003093,70.0001,51.0294,268.7735,91.307,-4.8921e-06,-1.51e-06,0.0,0 STARLINK-5306,1 55271U 23010C   24083.22429995 -.00000151  00000-0 -48921-5 0  9993,2 55271  70.0001  51.0294 0003093 268.7735  91.3070 14.98321404 65157,6950.219,96.108,574.234,569.935,0.0
55271.0,STARLINK-5306,PAYLOAD,2024-03-23 08:35:15,14.98321708,0.0003003,70.0007,50.6932,259.3949,100.6872,1.8172e-05,1.24e-06,0.0,0 STARLINK-5306,1 55271U 23010C   24083.35781924  .00000124  00000-0  18172-4 0  9992,2 55271  70.0007  50.6932 0003003 259.3949 100.6872 14.98321708 65488,6950.219,96.108,574.171,569.996,0.0
55271.0,STARLINK-5306,PAYLOAD,2024-03-24 05:24:59,14.98343218,0.0002059,70.0028,48.5087,241.8954,118.1997,9.1193e-05,9.96e-06,0.0,0 STARLINK-5306,1 55271U 23010C   24084.22568331  .00000996  00000-0  91193-4 0  9995,2 55271  70.0028  48.5087 0002059 241.8954 118.1997 14.98343218 65303,6950.152,96.106,573.448,570.586,0.0
55271.0,STARLINK-5306,PAYLOAD,2024-03-24 07:01:06,14.98345156,0.0002101,70.0031,48.3413,236.386,123.7099,0.00011624,1.295e-05,0.0,0 STARLINK-5306,1 55271U 23010C   24084.29244104  .00001295  00000-0  11624-3 0  9994,2 55271  70.0031  48.3413 0002101 236.3860 123.7099 14.98345156 65624,6950.146,96.106,573.471,570.551,0.0
55271.0,STARLINK-5306,PAYLOAD,2024-03-24 21:26:20,14.98324377,0.000107,70.0067,46.8289,239.5561,120.5493,0.00029227,3.396e-05,0.0,0 STARLINK-5306,1 55271U 23010C   24084.89329518  .00003396  00000-0  29227-3 0  9995,2 55271  70.0067  46.8289 0001070 239.5561 120.5493 14.98324377 65405,6950.21,96.107,572.819,571.332,0.0
55271.0,STARLINK-5306,PAYLOAD,2024-03-24 23:02:29,14.98321013,0.0002521,70.0034,46.6574,250.8975,109.1911,0.00016898,1.923e-05,0.0,0 STARLINK-5306,1 55271U 23010C   24084.96005849  .00001923  00000-0  16898-3 0  9995,2 55271  70.0034  46.6574 0002521 250.8975 109.1911 14.98321013 65728,6950.221,96.108,573.838,570.334,0.0
55271.0,STARLINK-5306,PAYLOAD,2024-03-25 05:27:01,14.98318207,0.0002733,70.0013,45.9814,258.4768,101.6084,5.4632e-05,5.59e-06,0.0,0 STARLINK-5306,1 55271U 23010C   24085.22710198  .00000559  00000-0  54632-4 0  9998,2 55271  70.0013  45.9814 0002733 258.4768 101.6084 14.98318207 65452,6950.229,96.108,573.994,570.195,0.0
55271.0,STARLINK-5306,PAYLOAD,2024-03-25 23:04:30,14.98322662,0.0002385,70.0015,44.1273,257.529,102.5602,-9.9577e-05,-1.281e-05,0.0,0 STARLINK-5306,1 55271U 23010C   24085.96146700 -.00001281  00000-0 -99577-4 0  9993,2 55271  70.0015  44.1273 0002385 257.5290 102.5602 14.98322662 65879,6950.216,96.107,573.738,570.423,0.0
55271.0,STARLINK-5306,PAYLOAD,2024-03-26 05:29:03,14.98324941,0.0002391,70.002,43.4555,269.289,90.7995,-0.0001367,-1.723e-05,0.0,0 STARLINK-5306,1 55271U 23010C   24086.22850842 -.00001723  00000-0 -13670-3 0  9992,2 55271  70.0020  43.4555 0002391 269.2890  90.7995 14.98324941 65609,6950.209,96.107,573.735,570.412,0.0
55271.0,STARLINK-5306,PAYLOAD,2024-03-26 07:05:11,14.9832503,0.000237,70.0022,43.2872,268.9367,91.152,-0.0001062,-1.36e-05,0.0,0 STARLINK-5306,1 55271U 23010C   24086.29526794 -.00001360  00000-0 -10620-3 0  9994,2 55271  70.0022  43.2872 0002370 268.9367  91.1520 14.98325030 65927,6950.208,96.107,573.72,570.426,0.0
55271.0,STARLINK-5306,PAYLOAD,2024-03-26 21:30:22,14.98325975,0.0003244,69.9999,41.7714,270.483,89.5957,0.00017976,2.052e-05,0.0,0 STARLINK-5306,1 55271U 23010C   24086.89609936  .00002052  00000-0  17976-3 0  9998,2 55271  69.9999  41.7714 0003244 270.4830  89.5957 14.98325975 65708,6950.205,96.107,574.325,569.816,0.0
55271.0,STARLINK-5306,PAYLOAD,2024-03-26 23:06:30,14.98327778,0.000326,70.0002,41.6043,272.3227,87.7558,0.00019637,2.251e-05,0.0,0 STARLINK-5306,1 55271U 23010C   24086.96285831  .00002251  00000-0  19637-3 0  9997,2 55271  70.0002  41.6043 0003260 272.3227  87.7558 14.98327778 66025,6950.2,96.107,574.331,569.799,0.0
55271.0,STARLINK-5306,PAYLOAD,2024-03-27 05:31:02,14.98338683,0.0002707,70.0013,40.9306,271.3586,88.7263,0.00034872,4.071e-05,0.0,0 STARLINK-5306,1 55271U 23010C   24087.22988904  .00004071  00000-0  34872-3 0  9998,2 55271  70.0013  40.9306 0002707 271.3586  88.7263 14.98338683 65753,6950.166,96.106,573.912,570.15,0.0
55271.0,STARLINK-5306,PAYLOAD,2024-03-27 07:07:10,14.98341279,0.0002714,70.0016,40.7622,272.2615,87.8234,0.00036029,4.21e-05,0.0,0 STARLINK-5306,1 55271U 23010C   24087.29664730  .00004210  00000-0  36029-3 0  9994,2 55271  70.0016  40.7622 0002714 272.2615  87.8234 14.98341279 66075,6950.158,96.106,573.909,570.137,0.0
55271.0,STARLINK-5306,PAYLOAD,2024-03-27 21:32:23,14.98328821,0.0002406,70.0041,39.2494,273.7202,86.3682,0.00024198,2.795e-05,0.0,0 STARLINK-5306,1 55271U 23010C   24087.89749657  .00002795  00000-0  24198-3 0  9992,2 55271  70.0041  39.2494 0002406 273.7202  86.3682 14.98328821 65853,6950.197,96.107,573.734,570.389,0.0
55271.0,STARLINK-5306,PAYLOAD,2024-03-28 13:33:44,14.98330277,0.0002255,70.003,37.5632,278.0234,82.0669,9.5519e-05,1.047e-05,0.0,0 STARLINK-5306,1 55271U 23010C   24088.56509926  .00001047  00000-0  95519-4 0  9995,2 55271  70.0030  37.5632 0002255 278.0234  82.0669 14.98330277 66263,6950.192,96.107,573.624,570.49,0.0
55271.0,STARLINK-5306,PAYLOAD,2024-03-28 21:34:24,14.98337921,0.0002298,70.0024,36.7227,267.0694,93.0202,-2.6207e-05,-4.06e-06,0.0,0 STARLINK-5306,1 55271U 23010C   24088.89889508 -.00000406  00000-0 -26207-4 0  9996,2 55271  70.0024  36.7227 0002298 267.0694  93.0202 14.98337921 66002,6950.168,96.106,573.631,570.436,0.0
55271.0,STARLINK-5306,PAYLOAD,2024-03-28 23:10:32,14.98336421,0.0002503,70.0019,36.5548,267.5032,92.5841,-6.9294e-05,-9.2e-06,0.0,0 STARLINK-5306,1 55271U 23010C   24088.96565658 -.00000920  00000-0 -69294-4 0  9995,2 55271  70.0019  36.5548 0002503 267.5032  92.5841 14.98336421 66322,6950.173,96.107,573.778,570.298,0.0
